{
  "norad_id": 47302,
  "name": "YAOGAN-33 01",
  "history": [
    {
      "epoch": "2026-03-28T21:53:14.278848Z",
      "apogee_km": 699.5903983441822,
      "perigee_km": 694.1509909283932,
      "latitude_deg": -2.2912328326969924e-05,
      "longitude_deg": 177.36679263585614,
      "height_km": 697.9090277384172,
      "semi_major_axis_km": 7075.007694636288,
      "eccentricity": 0.00038441,
      "inclination_deg": 98.053,
      "raan_deg": 332.0019,
      "arg_perigee_deg": 44.35,
      "mean_anomaly_deg": 315.8007,
      "mean_motion_rev_day": 14.5885587
    },
    {
      "epoch": "2026-03-29T04:28:18.168960Z",
      "apogee_km": 699.5807540712303,
      "perigee_km": 694.1584690041482,
      "latitude_deg": -1.1109681062228828e-05,
      "longitude_deg": 78.59606996429584,
      "height_km": 697.8953255093215,
      "semi_major_axis_km": 7075.006611537689,
      "eccentricity": 0.0003832,
      "inclination_deg": 98.053,
      "raan_deg": 332.2678,
      "arg_perigee_deg": 43.7786,
      "mean_anomaly_deg": 316.3717,
      "mean_motion_rev_day": 14.58856205
    },
    {
      "epoch": "2026-03-30T05:09:47.695104Z",
      "apogee_km": 699.5387308607151,
      "perigee_km": 694.1900298171786,
      "latitude_deg": 4.314432847400023e-05,
      "longitude_deg": 68.20649208031166,
      "height_km": 697.8408509079784,
      "semi_major_axis_km": 7075.001380338947,
      "eccentricity": 0.000378,
      "inclination_deg": 98.0526,
      "raan_deg": 333.2653,
      "arg_perigee_deg": 41.369,
      "mean_anomaly_deg": 318.7796,
      "mean_motion_rev_day": 14.58857823
    },
    {
      "epoch": "2026-03-30T06:48:33.661152Z",
      "apogee_km": 699.5369285502056,
      "perigee_km": 694.1913406929307,
      "latitude_deg": 3.180371165411375e-05,
      "longitude_deg": 43.5138655615576,
      "height_km": 697.8378875620618,
      "semi_major_axis_km": 7075.001134621568,
      "eccentricity": 0.00037778,
      "inclination_deg": 98.0526,
      "raan_deg": 333.3318,
      "arg_perigee_deg": 41.2423,
      "mean_anomaly_deg": 318.9062,
      "mean_motion_rev_day": 14.58857899
    },
    {
      "epoch": "2026-03-30T15:02:23.475840Z",
      "apogee_km": 699.5228169273696,
      "perigee_km": 694.2019928749205,
      "latitude_deg": 2.1057573578750758e-05,
      "longitude_deg": -79.94930852164332,
      "height_km": 697.8211844128248,
      "semi_major_axis_km": 7074.999404901145,
      "eccentricity": 0.00037603,
      "inclination_deg": 98.0525,
      "raan_deg": 333.6642,
      "arg_perigee_deg": 40.4394,
      "mean_anomaly_deg": 319.7085,
      "mean_motion_rev_day": 14.58858434
    },
    {
      "epoch": "2026-03-30T21:37:27.327936Z",
      "apogee_km": 699.5111059714245,
      "perigee_km": 694.2119320806742,
      "latitude_deg": -1.9320024811025828e-05,
      "longitude_deg": -178.71976476018682,
      "height_km": 697.8106219958349,
      "semi_major_axis_km": 7074.9985190260495,
      "eccentricity": 0.0003745,
      "inclination_deg": 98.0525,
      "raan_deg": 333.9302,
      "arg_perigee_deg": 39.8358,
      "mean_anomaly_deg": 320.3116,
      "mean_motion_rev_day": 14.58858708
    },
    {
      "epoch": "2026-03-31T20:40:10.760160Z",
      "apogee_km": 699.4673517166948,
      "perigee_km": 694.2460063815561,
      "latitude_deg": 5.2690584977809945e-05,
      "longitude_deg": -164.41618202870586,
      "height_km": 697.7683841693951,
      "semi_major_axis_km": 7074.993679049125,
      "eccentricity": 0.000369,
      "inclination_deg": 98.0526,
      "raan_deg": 334.8612,
      "arg_perigee_deg": 37.4623,
      "mean_anomaly_deg": 322.6834,
      "mean_motion_rev_day": 14.58860205
    }
  ]
}